UNKNOWN                 
1 81599U          25342.86266301  .00000480  00000+0  95917-3 0  9995
2 81599  67.2957 289.3534 0244736  87.1848 306.7685 13.31432317584567
UNKNOWN                 
1 81605U          25343.38904231  .00004201  00000+0  17371-1 0  9993
2 81605  56.4355 223.0716 0172851 126.9912 234.6975 12.81482375185770
UNKNOWN                 
1 81614U          25340.53795765  .00016024  00000+0  10224+0 0  9991
2 81614 101.8170 336.5766 0341093 162.2756 199.0551 12.37043645537218
UNKNOWN                 
1 81615U          25347.48458463  .00003402  00000+0  12198-2 0  9995
2 81615  65.8287  60.3938 0771307 136.3117 230.1700 13.34098589582968
UNKNOWN                 
1 81617U          25344.95903528  .00000387  00000+0  25518-2 0  9992
2 81617 101.2587 159.4875 0040595 244.3259 115.3622 12.57531551552883
UNKNOWN                 
1 81624U          25344.93963174  .00009660  00000+0  15277-2 0  9995
2 81624  66.9771 171.9039 0071946 237.7204 121.6934 14.70906459639448
UNKNOWN                 
1 81640U          25345.66525480  .00000405  00000+0  42881-3 0  9998
2 81640  65.8244 134.1034 0975901  78.1619 292.7021 12.57223475509947
UNKNOWN                 
1 81652U          25328.16440008  .00000932  00000+0  11344-2 0  9993
2 81652 102.1484 212.7977 0368298  41.0396 107.7003 13.44328436576158
UNKNOWN                 
1 81667U          25347.14253645  .00003770  00000+0  10205-2 0  9995
2 81667  74.0412  35.8068 0017128 324.0872  35.9135 14.47977591456705
UNKNOWN                 
1 81674U          25346.34120477  .00001412  00000+0  84198-3 0  9994
2 81674  66.8238   5.2750 0032202 231.7823 143.0236 14.09914170613662
UNKNOWN                 
1 81683U          25345.85474706  .00006416  00000+0  14073-2 0  9999
2 81683  81.2152 296.3076 0023003 304.3011  55.6008 14.57376928635730
UNKNOWN                 
1 81693U          25347.43773904  .00000083  00000+0  84923-3 0  9994
2 81693 101.0876  48.7917 0370928  83.9430 280.3758 12.25915160967854
