CCSDS_OMM_VERS = 2.0
CREATION_DATE  = 
ORIGINATOR     = 

OBJECT_NAME    = UNKNOWN
OBJECT_ID      = 
CENTER_NAME    = EARTH
REF_FRAME      = TEME
TIME_SYSTEM    = UTC
MEAN_ELEMENT_THEORY = SGP/SGP4

EPOCH          = 2025-12-08T20:42:14.084064
MEAN_MOTION    = 13.31432317
ECCENTRICITY   = .0244736
INCLINATION    = 67.2957
RA_OF_ASC_NODE = 289.3534
ARG_OF_PERICENTER = 87.1848
MEAN_ANOMALY   = 306.7685

EPHEMERIS_TYPE = 0
CLASSIFICATION_TYPE = U
NORAD_CAT_ID   = 81599
ELEMENT_SET_NO = 999
REV_AT_EPOCH   = 58456
BSTAR          = .95917E-3
MEAN_MOTION_DOT = .48E-5
MEAN_MOTION_DDOT = 0

CCSDS_OMM_VERS = 2.0
CREATION_DATE  = 
ORIGINATOR     = 

OBJECT_NAME    = UNKNOWN
OBJECT_ID      = 
CENTER_NAME    = EARTH
REF_FRAME      = TEME
TIME_SYSTEM    = UTC
MEAN_ELEMENT_THEORY = SGP/SGP4

EPOCH          = 2025-12-09T09:20:13.255584
MEAN_MOTION    = 12.81482375
ECCENTRICITY   = .0172851
INCLINATION    = 56.4355
RA_OF_ASC_NODE = 223.0716
ARG_OF_PERICENTER = 126.9912
MEAN_ANOMALY   = 234.6975

EPHEMERIS_TYPE = 0
CLASSIFICATION_TYPE = U
NORAD_CAT_ID   = 81605
ELEMENT_SET_NO = 999
REV_AT_EPOCH   = 18577
BSTAR          = .17371E-1
MEAN_MOTION_DOT = .4201E-4
MEAN_MOTION_DDOT = 0

CCSDS_OMM_VERS = 2.0
CREATION_DATE  = 
ORIGINATOR     = 

OBJECT_NAME    = UNKNOWN
OBJECT_ID      = 
CENTER_NAME    = EARTH
REF_FRAME      = TEME
TIME_SYSTEM    = UTC
MEAN_ELEMENT_THEORY = SGP/SGP4

EPOCH          = 2025-12-06T12:54:39.540960
MEAN_MOTION    = 12.37043645
ECCENTRICITY   = .0341093
INCLINATION    = 101.8170
RA_OF_ASC_NODE = 336.5766
ARG_OF_PERICENTER = 162.2756
MEAN_ANOMALY   = 199.0551

EPHEMERIS_TYPE = 0
CLASSIFICATION_TYPE = U
NORAD_CAT_ID   = 81614
ELEMENT_SET_NO = 999
REV_AT_EPOCH   = 53721
BSTAR          = .10224E+0
MEAN_MOTION_DOT = .16024E-3
MEAN_MOTION_DDOT = 0

CCSDS_OMM_VERS = 2.0
CREATION_DATE  = 
ORIGINATOR     = 

OBJECT_NAME    = UNKNOWN
OBJECT_ID      = 
CENTER_NAME    = EARTH
REF_FRAME      = TEME
TIME_SYSTEM    = UTC
MEAN_ELEMENT_THEORY = SGP/SGP4

EPOCH          = 2025-12-13T11:37:48.112032
MEAN_MOTION    = 13.34098589
ECCENTRICITY   = .0771307
INCLINATION    = 65.8287
RA_OF_ASC_NODE = 60.3938
ARG_OF_PERICENTER = 136.3117
MEAN_ANOMALY   = 230.1700

EPHEMERIS_TYPE = 0
CLASSIFICATION_TYPE = U
NORAD_CAT_ID   = 81615
ELEMENT_SET_NO = 999
REV_AT_EPOCH   = 58296
BSTAR          = .12198E-2
MEAN_MOTION_DOT = .3402E-4
MEAN_MOTION_DDOT = 0

CCSDS_OMM_VERS = 2.0
CREATION_DATE  = 
ORIGINATOR     = 

OBJECT_NAME    = UNKNOWN
OBJECT_ID      = 
CENTER_NAME    = EARTH
REF_FRAME      = TEME
TIME_SYSTEM    = UTC
MEAN_ELEMENT_THEORY = SGP/SGP4

EPOCH          = 2025-12-10T23:01:00.648192
MEAN_MOTION    = 12.57531551
ECCENTRICITY   = .0040595
INCLINATION    = 101.2587
RA_OF_ASC_NODE = 159.4875
ARG_OF_PERICENTER = 244.3259
MEAN_ANOMALY   = 115.3622

EPHEMERIS_TYPE = 0
CLASSIFICATION_TYPE = U
NORAD_CAT_ID   = 81617
ELEMENT_SET_NO = 999
REV_AT_EPOCH   = 55288
BSTAR          = .25518E-2
MEAN_MOTION_DOT = .387E-5
MEAN_MOTION_DDOT = 0

CCSDS_OMM_VERS = 2.0
CREATION_DATE  = 
ORIGINATOR     = 

OBJECT_NAME    = UNKNOWN
OBJECT_ID      = 
CENTER_NAME    = EARTH
REF_FRAME      = TEME
TIME_SYSTEM    = UTC
MEAN_ELEMENT_THEORY = SGP/SGP4

EPOCH          = 2025-12-10T22:33:04.182336
MEAN_MOTION    = 14.70906459
ECCENTRICITY   = .0071946
INCLINATION    = 66.9771
RA_OF_ASC_NODE = 171.9039
ARG_OF_PERICENTER = 237.7204
MEAN_ANOMALY   = 121.6934

EPHEMERIS_TYPE = 0
CLASSIFICATION_TYPE = U
NORAD_CAT_ID   = 81624
ELEMENT_SET_NO = 999
REV_AT_EPOCH   = 63944
BSTAR          = .15277E-2
MEAN_MOTION_DOT = .966E-4
MEAN_MOTION_DDOT = 0

CCSDS_OMM_VERS = 2.0
CREATION_DATE  = 
ORIGINATOR     = 

OBJECT_NAME    = UNKNOWN
OBJECT_ID      = 
CENTER_NAME    = EARTH
REF_FRAME      = TEME
TIME_SYSTEM    = UTC
MEAN_ELEMENT_THEORY = SGP/SGP4

EPOCH          = 2025-12-11T15:57:58.014720
MEAN_MOTION    = 12.57223475
ECCENTRICITY   = .0975901
INCLINATION    = 65.8244
RA_OF_ASC_NODE = 134.1034
ARG_OF_PERICENTER = 78.1619
MEAN_ANOMALY   = 292.7021

EPHEMERIS_TYPE = 0
CLASSIFICATION_TYPE = U
NORAD_CAT_ID   = 81640
ELEMENT_SET_NO = 999
REV_AT_EPOCH   = 50994
BSTAR          = .42881E-3
MEAN_MOTION_DOT = .405E-5
MEAN_MOTION_DDOT = 0

CCSDS_OMM_VERS = 2.0
CREATION_DATE  = 
ORIGINATOR     = 

OBJECT_NAME    = UNKNOWN
OBJECT_ID      = 
CENTER_NAME    = EARTH
REF_FRAME      = TEME
TIME_SYSTEM    = UTC
MEAN_ELEMENT_THEORY = SGP/SGP4

EPOCH          = 2025-11-24T03:56:44.166912
MEAN_MOTION    = 13.44328436
ECCENTRICITY   = .0368298
INCLINATION    = 102.1484
RA_OF_ASC_NODE = 212.7977
ARG_OF_PERICENTER = 41.0396
MEAN_ANOMALY   = 107.7003

EPHEMERIS_TYPE = 0
CLASSIFICATION_TYPE = U
NORAD_CAT_ID   = 81652
ELEMENT_SET_NO = 999
REV_AT_EPOCH   = 57615
BSTAR          = .11344E-2
MEAN_MOTION_DOT = .932E-5
MEAN_MOTION_DDOT = 0

CCSDS_OMM_VERS = 2.0
CREATION_DATE  = 
ORIGINATOR     = 

OBJECT_NAME    = UNKNOWN
OBJECT_ID      = 
CENTER_NAME    = EARTH
REF_FRAME      = TEME
TIME_SYSTEM    = UTC
MEAN_ELEMENT_THEORY = SGP/SGP4

EPOCH          = 2025-12-13T03:25:15.149280
MEAN_MOTION    = 14.47977591
ECCENTRICITY   = .0017128
INCLINATION    = 74.0412
RA_OF_ASC_NODE = 35.8068
ARG_OF_PERICENTER = 324.0872
MEAN_ANOMALY   = 35.9135

EPHEMERIS_TYPE = 0
CLASSIFICATION_TYPE = U
NORAD_CAT_ID   = 81667
ELEMENT_SET_NO = 999
REV_AT_EPOCH   = 45670
BSTAR          = .10205E-2
MEAN_MOTION_DOT = .377E-4
MEAN_MOTION_DDOT = 0

CCSDS_OMM_VERS = 2.0
CREATION_DATE  = 
ORIGINATOR     = 

OBJECT_NAME    = UNKNOWN
OBJECT_ID      = 
CENTER_NAME    = EARTH
REF_FRAME      = TEME
TIME_SYSTEM    = UTC
MEAN_ELEMENT_THEORY = SGP/SGP4

EPOCH          = 2025-12-12T08:11:20.092128
MEAN_MOTION    = 14.09914170
ECCENTRICITY   = .0032202
INCLINATION    = 66.8238
RA_OF_ASC_NODE = 5.2750
ARG_OF_PERICENTER = 231.7823
MEAN_ANOMALY   = 143.0236

EPHEMERIS_TYPE = 0
CLASSIFICATION_TYPE = U
NORAD_CAT_ID   = 81674
ELEMENT_SET_NO = 999
REV_AT_EPOCH   = 61366
BSTAR          = .84198E-3
MEAN_MOTION_DOT = .1412E-4
MEAN_MOTION_DDOT = 0

CCSDS_OMM_VERS = 2.0
CREATION_DATE  = 
ORIGINATOR     = 

OBJECT_NAME    = UNKNOWN
OBJECT_ID      = 
CENTER_NAME    = EARTH
REF_FRAME      = TEME
TIME_SYSTEM    = UTC
MEAN_ELEMENT_THEORY = SGP/SGP4

EPOCH          = 2025-12-11T20:30:50.145984
MEAN_MOTION    = 14.57376928
ECCENTRICITY   = .0023003
INCLINATION    = 81.2152
RA_OF_ASC_NODE = 296.3076
ARG_OF_PERICENTER = 304.3011
MEAN_ANOMALY   = 55.6008

EPHEMERIS_TYPE = 0
CLASSIFICATION_TYPE = U
NORAD_CAT_ID   = 81683
ELEMENT_SET_NO = 999
REV_AT_EPOCH   = 63573
BSTAR          = .14073E-2
MEAN_MOTION_DOT = .6416E-4
MEAN_MOTION_DDOT = 0

CCSDS_OMM_VERS = 2.0
CREATION_DATE  = 
ORIGINATOR     = 

OBJECT_NAME    = UNKNOWN
OBJECT_ID      = 
CENTER_NAME    = EARTH
REF_FRAME      = TEME
TIME_SYSTEM    = UTC
MEAN_ELEMENT_THEORY = SGP/SGP4

EPOCH          = 2025-12-13T10:30:20.653056
MEAN_MOTION    = 12.25915160
ECCENTRICITY   = .0370928
INCLINATION    = 101.0876
RA_OF_ASC_NODE = 48.7917
ARG_OF_PERICENTER = 83.9430
MEAN_ANOMALY   = 280.3758

EPHEMERIS_TYPE = 0
CLASSIFICATION_TYPE = U
NORAD_CAT_ID   = 81693
ELEMENT_SET_NO = 999
REV_AT_EPOCH   = 96785
BSTAR          = .84923E-3
MEAN_MOTION_DOT = .83E-6
MEAN_MOTION_DDOT = 0

